{
    "links": {
        "self": "http://www.neowsapp.com/rest/v1/neo/3802408?api_key=iIulBulltgU6a56xZRHN4H3l9WmuAYTsLGpBGhQ2"
    },
    "id": "3802408",
    "neo_reference_id": "3802408",
    "name": "(2018 GW)",
    "designation": "2018 GW",
    "nasa_jpl_url": "http://ssd.jpl.nasa.gov/sbdb.cgi?sstr=3802408",
    "absolute_magnitude_h": 25.3,
    "estimated_diameter": {
        "kilometers": {
            "estimated_diameter_min": 0.0231502122,
            "estimated_diameter_max": 0.0517654482
        },
        "meters": {
            "estimated_diameter_min": 23.150212221,
            "estimated_diameter_max": 51.7654482198
        },
        "miles": {
            "estimated_diameter_min": 0.0143848705,
            "estimated_diameter_max": 0.0321655483
        },
        "feet": {
            "estimated_diameter_min": 75.9521422633,
            "estimated_diameter_max": 169.8341531374
        }
    },
    "is_potentially_hazardous_asteroid": false,
    "close_approach_data": [
        {
            "close_approach_date": "2015-10-18",
            "close_approach_date_full": "2015-Oct-18 03:51",
            "epoch_date_close_approach": 1445140260000,
            "relative_velocity": {
                "kilometers_per_second": "9.2054363877",
                "kilometers_per_hour": "33139.5709957024",
                "miles_per_hour": "20591.6406556352"
            },
            "miss_distance": {
                "astronomical": "0.0649659303",
                "lunar": "25.2717468867",
                "kilometers": "9718764.795448461",
                "miles": "6038960.4135763218"
            },
            "orbiting_body": "Mars"
        },
        {
            "close_approach_date": "2018-05-05",
            "close_approach_date_full": "2018-May-05 05:08",
            "epoch_date_close_approach": 1525496880000,
            "relative_velocity": {
                "kilometers_per_second": "7.4054433057",
                "kilometers_per_hour": "26659.5959003849",
                "miles_per_hour": "16565.2361304364"
            },
            "miss_distance": {
                "astronomical": "0.0557792413",
                "lunar": "21.6981248657",
                "kilometers": "8344455.688696031",
                "miles": "5185004.3331099878"
            },
            "orbiting_body": "Earth"
        }
    ],
    "orbital_data": {
        "orbit_id": "4",
        "orbit_determination_date": "2018-05-13 06:25:05",
        "first_observation_date": "2018-04-08",
        "last_observation_date": "2018-05-12",
        "data_arc_in_days": 34,
        "observations_used": 29,
        "orbit_uncertainty": "8",
        "minimum_orbit_intersection": ".0306859",
        "jupiter_tisserand_invariant": "4.112",
        "epoch_osculation": "2458219.5",
        "eccentricity": ".3989786202454812",
        "semi_major_axis": "1.696758512114101",
        "inclination": "3.328850451341851",
        "ascending_node_longitude": "30.66584167891578",
        "orbital_period": "807.2879718027458",
        "perihelion_distance": "1.019788142061041",
        "perihelion_argument": "219.5319362357781",
        "aphelion_distance": "2.37372888216716",
        "perihelion_time": "2458264.870383564417",
        "mean_anomaly": "339.7676434510522",
        "mean_motion": ".4459375248662358",
        "equinox": "J2000",
        "orbit_class": {
            "orbit_class_type": "AMO",
            "orbit_class_description": "Near-Earth asteroid orbits similar to that of 1221 Amor",
            "orbit_class_range": "1.017 AU < q (perihelion) < 1.3 AU"
        }
    },
    "is_sentry_object": false
}